ONEWEB-0055             
1 45443U 20020V   20115.91667824  .00039875  00000-0  16487-2 0  9996
2 45443  87.4285 126.8238 0027201 163.0153 105.7086 15.23467618  5204
ONEWEB-0093             
1 45444U 20020W   20115.91667824 -.00064784  00000-0 -22728-2 0  9991
2 45444  87.4068 126.8158 0027987 163.4691 168.4063 15.29375776  5207
ONEWEB-0029             
1 45445U 20020X   20115.91667824  .00041065  00000-0  18467-2 0  9992
2 45445  87.4286 126.8448 0028218 164.2226   8.5182 15.20584970  5208
ONEWEB-0068             
1 45446U 20020Y   20115.91667824  .00057655  00000-0  26556-2 0  9993
2 45446  87.4312 126.8583 0028811 166.3288 327.8294 15.19682194  5205
ONEWEB-0046             
1 45447U 20020Z   20115.91667824  .00061121  00000-0  29141-2 0  9990
2 45447  87.4356 126.8574 0028746 166.9524 277.5312 15.18477415  5209
ONEWEB-0063             
1 45448U 20020AA  20115.91667824  .00055430  00000-0  24025-2 0  9993
2 45448  87.4272 126.8579 0028310 169.0531 346.5383 15.21784627  5206
ONEWEB-0019             
1 45449U 20020AB  20115.91667824  .00035773  00000-0  28273-2 0  9991
2 45449  87.4773 127.0662 0028471 170.0725 124.2835 15.00183898  5173
ONEWEB-0094             
1 45450U 20020AC  20115.91667824  .00059545  00000-0  29751-2 0  9998
2 45450  87.4290 126.8803 0027765 171.5293 174.8564 15.16877815  5192
ONEWEB-0087             
1 45451U 20020AD  20115.91667824  .00035212  00000-0  27468-2 0  9997
2 45451  87.4507 127.0057 0027202 173.2087 265.1722 15.00713959  5184
ONEWEB-0082             
1 45452U 20020AE  20115.91667824  .00052529  00000-0  26711-2 0  9998
2 45452  87.4195 126.8884 0027219 173.0891  93.4691 15.16304617  5194
ONEWEB-0050             
1 45453U 20020AF  20115.91667824 -.00049601  00000-0 -21116-2 0  9992
2 45453  87.4538 126.8717 0026406 172.7323 272.5674 15.22953983  5200
ONEWEB-0034             
1 45454U 20020AG  20115.91667824  .00062846  00000-0  32515-2 0  9992
2 45454  87.4217 126.8953 0025707 171.6950  50.2155 15.15687456  5198
ONEWEB-0060             
1 45455U 20020AH  20115.91667824  .00067899  00000-0  66809-2 0  9999
2 45455  87.4704 127.1685 0024732 172.3604 259.0271 14.91543005  1780
ONEWEB-0086             
1 45456U 20020AJ  20115.91667824  .00069062  00000-0  61445-2 0  9995
2 45456  87.4577 127.1306 0024623 171.0490 335.6347 14.95520537  5167
ONEWEB-0088             
1 45457U 20020AK  20115.91667824  .00064831  00000-0  66599-2 0  9990
2 45457  87.4492 127.1476 0023956 171.0552 159.1982 14.89845922  5153
